<?xml version="1.0" encoding="utf-8" ?>
<kml xmlns="http://www.opengis.net/kml/2.2">
<Document id="root_doc">
<Schema name="Fire_2020_9" id="Fire_2020_9">
	<SimpleField name="id" type="string"></SimpleField>
	<SimpleField name="count" type="int"></SimpleField>
	<SimpleField name="label" type="int"></SimpleField>
</Schema>
<Folder><name>Fire_2020_9</name>
  <Placemark>
	<Style><LineStyle><color>ff0000ff</color></LineStyle><PolyStyle><fill>0</fill></PolyStyle></Style>
	<ExtendedData><SchemaData schemaUrl="#Fire_2020_9">
		<SimpleData name="id">+138+189</SimpleData>
		<SimpleData name="count">8608</SimpleData>
		<SimpleData name="label">1</SimpleData>
	</SchemaData></ExtendedData>
      <MultiGeometry><Polygon><outerBoundaryIs><LinearRing><coordinates>-123.71011433528,41.5950099606976 -123.72211233293,41.5949352264535 -123.722011965924,41.5859286310868 -123.710015635547,41.586003341831 -123.71011433528,41.5950099606976</coordinates></LinearRing></outerBoundaryIs></Polygon><Polygon><outerBoundaryIs><LinearRing><coordinates>-123.697922271955,41.577070144689 -123.709916980712,41.5769967086093 -123.709818370757,41.5679900610415 -123.697825327782,41.5680634740256 -123.697922271955,41.577070144689</coordinates></LinearRing></outerBoundaryIs></Polygon><Polygon><outerBoundaryIs><LinearRing><coordinates>-123.605455660631,40.658779833302 -123.605618626818,40.67679634402 -123.617450723665,40.6767336735573 -123.617284574064,40.658717202437 -123.605455660631,40.658779833302</coordinates></LinearRing></outerBoundaryIs></Polygon><Polygon><outerBoundaryIs><LinearRing><coordinates>-123.501498456762,40.9925911927611 -123.513387043528,40.9925388595537 -123.513317181198,40.9835309640104 -123.501430212073,40.9835832807068 -123.501498456762,40.9925911927611</coordinates></LinearRing></outerBoundaryIs></Polygon><Polygon><outerBoundaryIs><LinearRing><coordinates>-122.669172351066,41.0112237626392 -122.669217400455,41.0022156844954 -122.657326821217,41.0021809504163 -122.657280152516,41.0111890176007 -122.669172351066,41.0112237626392</coordinates></LinearRing></outerBoundaryIs></Polygon><Polygon><outerBoundaryIs><LinearRing><coordinates>-123.71011433528,41.5950099606976 -123.698116292704,41.5950834429867 -123.698213369325,41.6040900706208 -123.686213614507,41.6041623236642 -123.686022840826,41.586149008613 -123.698019260263,41.5860768010064 -123.697922271955,41.577070144689 -123.685927519082,41.5771423295862 -123.685737005671,41.5591289285124 -123.673745540317,41.5591998176077 -123.673465085693,41.5321795416204 -123.661478568484,41.5322491145941 -123.661386830695,41.5232423053924 -123.649401933823,41.5233106076183 -123.649221905278,41.5052969032821 -123.637240289377,41.5053639144582 -123.63715199633,41.4963570197369 -123.529330675791,41.4969037824158 -123.529404029424,41.5059108492094 -123.493457981589,41.5060706936255 -123.493526386187,41.5150777964684 -123.469558875834,41.5151781498739 -123.469623988367,41.5241852700454 -123.457638526778,41.5242335889962 -123.457765515223,41.5422478170411 -123.445776699226,41.5422949165829 -123.445714853704,41.5332877948573 -123.433727672722,41.533333630146 -123.433607390111,41.5153193151711 -123.421623505847,41.5153638729656 -123.421565066467,41.5063566801205 -123.409582816535,41.5063999756114 -123.409526063904,41.4973927549274 -123.397545448331,41.4974347889052 -123.39749038093,41.4884275407687 -123.385511399743,41.4884683140149 -123.385351321495,41.4614464458625 -123.39732532889,41.4614057111002 -123.397270361553,41.4523984061184 -123.385298010588,41.4524391280617 -123.385191461457,41.434424449835 -123.397160501834,41.4343837535206 -123.39699589941,41.4073616680389 -123.408959954622,41.4073197661584 -123.408847041251,41.3893049978396 -123.420807767773,41.3892618791372 -123.420749699173,41.3802544872343 -123.408790623035,41.3802975923632 -123.408734230449,41.3712901726755 -123.468521091811,41.3710622910007 -123.468456480556,41.3620549288411 -123.504323304619,41.361903339134 -123.504253778564,41.3528960104726 -123.516207676372,41.3528430133563 -123.516065425201,41.3348283466819 -123.539966535618,41.334718696899 -123.539669263641,41.2986893306719 -123.551613190141,41.298632716022 -123.551537313752,41.2896253566562 -123.563479563079,41.289567521061 -123.563402079163,41.2805601656567 -123.551461471813,41.280617983043 -123.551234152493,41.253595776666 -123.539298432211,41.253652302221 -123.539076337052,41.2266299141687 -123.527145497991,41.226685150255 -123.526928613205,41.1996625817851 -123.538854544113,41.1996073978909 -123.538706849807,41.1815923158086 -123.526784187302,41.181647464938 -123.526712023479,41.1726398851615 -123.538633052901,41.1725847534055 -123.538559289466,41.1635771767641 -123.550478653088,41.1635208290486 -123.550403291524,41.1545132559107 -123.538485559494,41.1545695858755 -123.538190973813,41.1185390799109 -123.550102186885,41.118482820922 -123.550026996037,41.1094751765656 -123.538117410864,41.1095314178218 -123.537896922063,41.0825083461156 -123.549801627983,41.0824521580397 -123.54972657339,41.0734444567121 -123.561629620346,41.0733870568987 -123.561476365576,41.0553716477129 -123.549576566263,41.0554290113332 -123.549426695069,41.037413509001 -123.561323249685,41.0373561815469 -123.561246743774,41.028348427102 -123.549351810411,41.028405736482 -123.549276959683,41.0193979497157 -123.537383612915,41.0194540139049 -123.53723725205,41.0014383623087 -123.50156673238,41.0015990905862 -123.501498456762,40.9925911927611 -123.489609839067,40.9926422999568 -123.489476615192,40.9746264294142 -123.477591201922,40.9746762791392 -123.477526251455,40.9656683068259 -123.48941004852,40.9656184728214 -123.489343511987,40.9566105020172 -123.524989872994,40.9564537004107 -123.524491097168,40.8933978529577 -123.548232602624,40.8932874405051 -123.548083948602,40.8752714257919 -123.559951432837,40.87521442298 -123.559799697926,40.857198387336 -123.571663932397,40.8571402003289 -123.571509122311,40.8391241444908 -123.583370109256,40.8390647748337 -123.583133343503,40.8120406405373 -123.571277169786,40.8120999539958 -123.571199922235,40.8030918620359 -123.58305449299,40.8030325672983 -123.582582138431,40.7489838289675 -123.570737170235,40.7490430114516 -123.570583198483,40.73102661411 -123.582424971623,40.7309674689958 -123.582032676009,40.6859263200714 -123.593866438674,40.6858660554677 -123.593626710376,40.6588412524924 -123.605455660631,40.658779833302 -123.605292841731,40.6407632656488 -123.179547543156,40.6422100161581 -123.179571687751,40.6512187644002 -123.155915266246,40.6512531282387 -123.155936239599,40.6602618732289 -123.14410642317,40.6602772426758 -123.144125814195,40.6692859784134 -123.132294397193,40.6693001403988 -123.132276597983,40.6602914001786 -123.120446764747,40.6603043457462 -123.120414371929,40.6422868148116 -123.002147570454,40.6423495735697 -123.002151044634,40.7504541510902 -122.860001341754,40.7503692635927 -122.859982443554,40.7593778598848 -122.84813507427,40.7593628786089 -122.848094051984,40.7773800193873 -122.836243491766,40.7773638117224 -122.836221365506,40.7863723558134 -122.824369214103,40.7863549257211 -122.824274196852,40.8223889388703 -122.812415644198,40.8223702678991 -122.812390258186,40.8313787299829 -122.800530112217,40.8313588338984 -122.800476093913,40.8493757031161 -122.788612748388,40.8493545744711 -122.788584113914,40.8583629812187 -122.776719174373,40.8583406255379 -122.776628367832,40.8853657398064 -122.764758616725,40.8853421414142 -122.764726710579,40.894350477123 -122.740984032678,40.8942995997254 -122.740948890889,40.9033079052328 -122.729075964858,40.9032806250865 -122.728965607814,40.9303054309095 -122.705210134229,40.930247148627 -122.705170088232,40.9392553705552 -122.693290764804,40.93922438449 -122.693249086451,40.9482325824871 -122.705130024089,40.948263578326 -122.705049841338,40.9662799514041 -122.69316567308,40.966248936 -122.693082184098,40.984265232892 -122.681194801227,40.9842329721803 -122.681064570026,41.0112572807857 -122.669172351066,41.0112237626392 -122.66912728125,41.0202318266077 -122.657233462669,41.0201970706097 -122.656952878705,41.0742450911057 -122.668856432966,41.0742799129322 -122.668811219914,41.0832878777267 -122.680716419862,41.0833214805483 -122.68058553766,41.1103453217154 -122.692495637433,41.1103777251784 -122.692453598605,41.1193856541121 -122.704365345609,41.1194168362436 -122.704324916615,41.1284247608474 -122.716238310869,41.1284547208659 -122.716199493202,41.1374626407446 -122.728114534715,41.1374913778775 -122.728040108081,41.1555071932725 -122.73995842804,41.155534715398 -122.739887198367,41.1735504915007 -122.751808799018,41.1735767970918 -122.75177479332,41.1825846721894 -122.763698042794,41.1826097517688 -122.763633254104,41.200625475311 -122.775559787288,41.200649335625 -122.775405743581,41.2456884343244 -122.787340476327,41.2457110952257 -122.787311264955,41.2547188796384 -122.799247650305,41.2547403102611 -122.799164859116,41.2817635987936 -122.81110617954,41.2817838110851 -122.810976162506,41.3268223740113 -122.822925713923,41.3268413776106 -122.822852502341,41.3538643634288 -122.834807005345,41.3538821432622 -122.834738641153,41.3809050184619 -122.846698101761,41.3809215721848 -122.846676943561,41.3899291741497 -122.858638064372,41.3899444897875 -122.858618547907,41.3989520824189 -122.882544118065,41.3989789922617 -122.882527896917,41.4079865792067 -122.894492345537,41.407998172226 -122.894477769868,41.4170057486697 -122.918409991944,41.4170252085504 -122.918387436675,41.4350403312275 -122.942326295217,41.4350548222837 -122.942318320135,41.4440623669541 -122.954289410341,41.4440677462636 -122.954283087513,41.4530752784743 -122.966255836477,41.4530794134196 -122.966246496199,41.4710944379828 -122.990198627771,41.4710989725436 -122.990195913062,41.4891139433426 -123.002175297189,41.4891143406045 -123.002175900066,41.5071292550432 -123.014158604105,41.507128404141 -123.014162530606,41.5251432614199 -123.026148556831,41.5251411607725 -123.026155813008,41.5431559601011 -123.038145163673,41.5431526081544 -123.038150458425,41.5521599855225 -123.050141470874,41.5521553821417 -123.050155398238,41.570170091513 -123.062149738146,41.5701642340572 -123.062184301312,41.6061934755083 -123.074185307654,41.6061863579407 -123.074205952592,41.624200889212 -123.086210293974,41.6241925136436 -123.086246311944,41.6512141964106 -123.098255663158,41.6512045582243 -123.098296752522,41.6782261043934 -123.110311119651,41.6782152012174 -123.110542624833,41.8133209675287 -123.098503043782,41.813331922241 -123.098544471549,41.8403527031085 -123.086499820685,41.8403624051381 -123.086536234721,41.8673830675627 -123.074486507873,41.8673915145201 -123.074496965269,41.8763983763001 -123.062445541952,41.8764055613043 -123.062471863047,41.9034260683383 -123.050415356002,41.9034319943176 -123.050429533079,41.9214455985005 -123.038369632442,41.9214502616103 -123.038375029493,41.9304570438984 -123.02631343006,41.9304604414705 -123.026317132467,41.9394672106433 -123.014253834221,41.9394693418873 -123.014257847544,41.957482839045 -123.002191151833,41.9574837034309 -123.002191460432,41.9664904310116 -122.990123065145,41.9664900270752 -122.990121673664,41.9754967403547 -122.978051578791,41.9754950672964 -122.978048485685,41.9845017658705 -122.965976691237,41.9844988228998 -122.965971894943,41.9935055063643 -122.953898400917,41.9935012926817 -122.95389189989,42.0025079606412 -123.110869403906,42.0024636811807 -123.110885043072,42.0114703210499 -123.171269294662,42.0113961090593 -123.171245139009,42.0023894924834 -123.4489684675,42.0016392406955 -123.448841896673,41.9836264360311 -123.460913141766,41.9835786054584 -123.460978114207,41.9925849998989 -123.47305103111,41.9925358846904 -123.473117735457,42.0015422494505 -123.642158850925,42.0007210740001 -123.642068317121,41.9917149670654 -123.738646123616,41.9911341566921 -123.738230003603,41.9551103146908 -123.726164735414,41.9551872621682 -123.725960355176,41.9371752065281 -123.713898435414,41.9372508387012 -123.713497014991,41.9012264599116 -123.701441830383,41.901300731712 -123.700752941785,41.838257352444 -123.688709549397,41.8383301984474 -123.688034655616,41.7752859554762 -123.700066248543,41.7752132695346 -123.699479395526,41.7211749242985 -123.711500860029,41.7211011178074 -123.711103807718,41.685075360023 -123.723118519845,41.6850003903934 -123.722715495274,41.6489744971341 -123.734723466641,41.648898367429 -123.734416666414,41.6218788684934 -123.722413708177,41.6219549264051 -123.722212745625,41.6039418074651 -123.710213079955,41.6040165652181 -123.71011433528,41.5950099606976</coordinates></LinearRing></outerBoundaryIs><innerBoundaryIs><LinearRing><coordinates>-123.661478568484,41.5322491145941 -123.649492009532,41.5323174383166 -123.64958212623,41.5413242546958 -123.661570348019,41.5412559094766 -123.661478568484,41.5322491145941</coordinates></LinearRing></innerBoundaryIs><innerBoundaryIs><LinearRing><coordinates>-123.558967606687,40.7581091740419 -123.558892167194,40.7491009783984 -123.547047130034,40.7491577297899 -123.547120970877,40.7581659433638 -123.558967606687,40.7581091740419</coordinates></LinearRing></innerBoundaryIs><innerBoundaryIs><LinearRing><coordinates>-123.507982587042,41.8302647904977 -123.507911395915,41.8212582031799 -123.495870767141,41.8213108122599 -123.495801295191,41.8123041941389 -123.483762321473,41.812355525051 -123.483830106674,41.8213621593058 -123.471789415296,41.8214122442995 -123.471855543877,41.8304188800275 -123.447770696346,41.8305152941319 -123.447833478442,41.8395219459127 -123.471921702615,41.8394255015082 -123.471987891527,41.8484321087237 -123.484033647804,41.8483819764965 -123.483897922785,41.8303687792953 -123.507982587042,41.8302647904977</coordinates></LinearRing></innerBoundaryIs><innerBoundaryIs><LinearRing><coordinates>-123.506635488399,41.6591371916626 -123.50649436561,41.6411234606644 -123.494487325787,41.6411757400178 -123.494418484006,41.6321688366907 -123.482413084283,41.6322198458802 -123.482480254622,41.6412267652512 -123.47047315287,41.6412765363467 -123.470342184924,41.623262652051 -123.44633457711,41.62335837156 -123.446458860629,41.6413723160787 -123.458466021284,41.6413250532862 -123.458529877747,41.6503319893209 -123.470538681574,41.6502834571191 -123.470604240129,41.6592903636442 -123.506635488399,41.6591371916626</coordinates></LinearRing></innerBoundaryIs><innerBoundaryIs><LinearRing><coordinates>-123.447959128541,41.8575352067147 -123.447896289168,41.8485285834374 -123.435850444622,41.8485749258969 -123.43591159412,41.8575815637359 -123.447959128541,41.8575352067147</coordinates></LinearRing></innerBoundaryIs><innerBoundaryIs><LinearRing><coordinates>-123.424102141538,41.893653122682 -123.42398303236,41.8756399183751 -123.411932060761,41.8756837756095 -123.411816442347,41.8576704867712 -123.399768826539,41.8577130527672 -123.399824931871,41.8667197176814 -123.387775599769,41.866761032962 -123.387830039202,41.8757676966186 -123.375778990779,41.8758077603844 -123.375831762787,41.884814422397 -123.387884503483,41.8847743460369 -123.387938992602,41.8937809812349 -123.424102141538,41.893653122682</coordinates></LinearRing></innerBoundaryIs><innerBoundaryIs><LinearRing><coordinates>-123.54689954852,40.7311412599991 -123.535057673134,40.7311967607561 -123.535129849983,40.7402050202967 -123.546973322591,40.7401495020047 -123.54689954852,40.7311412599991</coordinates></LinearRing></innerBoundaryIs><innerBoundaryIs><LinearRing><coordinates>-123.54689954852,40.7311412599991 -123.558741390543,40.7310845444505 -123.558666053349,40.722076306137 -123.546825807813,40.7221330037823 -123.54689954852,40.7311412599991</coordinates></LinearRing></innerBoundaryIs></Polygon></MultiGeometry>
  </Placemark>
  <Placemark>
	<Style><LineStyle><color>ff0000ff</color></LineStyle><PolyStyle><fill>0</fill></PolyStyle></Style>
	<ExtendedData><SchemaData schemaUrl="#Fire_2020_9">
		<SimpleData name="id">+228+168</SimpleData>
		<SimpleData name="count">1060</SimpleData>
		<SimpleData name="label">1</SimpleData>
	</SchemaData></ExtendedData>
      <Polygon><outerBoundaryIs><LinearRing><coordinates>-122.110758013433,40.9722359648235 -122.098874071541,40.9721436833647 -122.09899660648,40.9631365098962 -122.06334996306,40.9628524064497 -122.063604552286,40.9448381954368 -122.051725680693,40.9447411068234 -122.051854501988,40.9357340102777 -122.039977301872,40.9356357291059 -122.040107677225,40.926628649116 -122.016356679577,40.9264284804498 -122.016623698199,40.9084144033757 -122.004751512137,40.9083125492087 -122.004886540899,40.8993055210966 -121.993016026063,40.8992024774974 -121.993152603044,40.8901954674145 -121.981283759371,40.8900912351554 -121.981421883116,40.88108424347 -121.969554710543,40.8809788233327 -121.969973528081,40.8539578610865 -121.958111239944,40.8538513211273 -121.958252325067,40.8448443383262 -121.946391706386,40.8447366128065 -121.946676894099,40.8267226716565 -121.934819548898,40.8266137957273 -121.934098067552,40.8716483677171 -121.945963440477,40.8717574156198 -121.945677606587,40.8897712115392 -121.933809017488,40.8896620947896 -121.933519705573,40.9076757637321 -121.921647962911,40.9075653562472 -121.920034298002,41.0066391121493 -121.884366202319,41.0062993819841 -121.884214250662,41.0153058925947 -121.860432626177,41.015073202364 -121.860587814813,41.0060667651188 -121.848698726141,41.0059486177224 -121.849481696745,40.9609163986629 -121.837600760105,40.9607972134249 -121.837442693095,40.9698036488645 -121.825560213337,40.9696832016373 -121.825719895051,40.9606768041964 -121.754436248795,40.959928646085 -121.754605541216,40.95092246998 -121.730848158918,40.9506633747057 -121.731020600588,40.9416572656331 -121.683513230555,40.9411245624148 -121.683692042539,40.9321186066576 -121.67181701269,40.9319824164371 -121.67199735499,40.922976488878 -121.648250763471,40.9227005279768 -121.648434245077,40.9136946726961 -121.636562684018,40.9135549032102 -121.636932616747,40.8955432364507 -121.625064358012,40.8954023342342 -121.625250806987,40.8863965231057 -121.613384240822,40.8862544448417 -121.613572212828,40.877248663735 -121.601707339142,40.8771054102051 -121.601896832724,40.8680996594794 -121.590033651419,40.8679552314741 -121.59022466513,40.8589495114798 -121.554640460318,40.8585090486852 -121.55483620276,40.849503452838 -121.542976582377,40.8493542405942 -121.538414908708,41.0564780920931 -121.550311627617,41.0566283907594 -121.549717982501,41.083644106045 -121.561619658645,41.0837933180822 -121.561816006777,41.0747880475329 -121.585616378707,41.0750826921254 -121.585423277267,41.0840880555604 -121.597325218271,41.0842335809476 -121.597133653417,41.0932389754015 -121.609037305433,41.0933833173392 -121.608847278638,41.1023887424346 -121.680280724061,41.1032292416799 -121.67865455339,41.184279786501 -121.690575078318,41.184415950895 -121.690216070648,41.2024271063064 -121.702139943023,41.202562122339 -121.701961951129,41.211567720432 -121.713887538405,41.2117015444092 -121.713711100659,41.2207071699008 -121.725638402936,41.2208398010321 -121.725463520803,41.229845453563 -121.73739253817,41.2299768910669 -121.73721921315,41.2389825702598 -121.773011643789,41.2393695919187 -121.77284315202,41.2483753783076 -121.784775753512,41.2485019536171 -121.784274735716,41.2755193442336 -121.796212329703,41.2756448017155 -121.796046812498,41.2846506087207 -121.807986122052,41.284774867841 -121.807658145238,41.3027865160952 -121.819600812398,41.3029096147988 -121.819275823784,41.3209212819085 -121.831221850949,41.3210432186683 -121.831864963647,41.2850196722936 -121.843804494204,41.2851402175988 -121.844598549175,41.2401102653121 -121.856529956384,41.2402293848922 -121.85700061673,41.2132111253622 -121.868927186682,41.2133288975323 -121.869547203694,41.1773041984484 -121.881467309594,41.1774205889197 -121.88162050636,41.1684143409585 -121.893539049973,41.1685294617779 -121.893841973727,41.1505168495147 -121.905757324628,41.1506306655671 -121.906056715236,41.1326179232368 -121.917968875501,41.1327304361033 -121.918412570255,41.1057111069493 -121.930319915227,41.1058222831495 -121.930466053409,41.0968157759255 -121.942371838627,41.0969256871182 -121.942516285272,41.0879191307025 -121.954420510665,41.0880277776511 -121.954705959123,41.0700145527099 -121.966607000743,41.0701219023386 -121.966888944954,41.0521085515883 -121.978786804875,41.052214605469 -121.978926059447,41.04320787487 -122.002718724416,41.0434162325873 -122.002854673825,41.0344094217957 -122.014749478056,41.0345117267732 -122.014883745522,41.0255048692242 -122.026776990232,41.0256059149433 -122.026909577229,41.0165990110502 -122.038801262365,41.0166987982835 -122.038932170357,41.0076918484506 -122.062712479934,41.0078876811916 -122.062840092115,40.9988806551366 -122.098506133459,40.9991651172714 -122.098628835062,40.9901579870568 -122.110516010053,40.9902503267444 -122.110758013433,40.9722359648235</coordinates></LinearRing></outerBoundaryIs></Polygon>
  </Placemark>
  <Placemark>
	<Style><LineStyle><color>ff0000ff</color></LineStyle><PolyStyle><fill>0</fill></PolyStyle></Style>
	<ExtendedData><SchemaData schemaUrl="#Fire_2020_9">
		<SimpleData name="id">+237+111</SimpleData>
		<SimpleData name="count">1829</SimpleData>
		<SimpleData name="label">1</SimpleData>
	</SchemaData></ExtendedData>
      <Polygon><outerBoundaryIs><LinearRing><coordinates>-122.206941620119,41.8646775139902 -122.194893572276,41.8645936842679 -122.195345123919,41.8285696095042 -122.183303883015,41.8284846229494 -122.183647065199,41.8014664955526 -122.171610934891,41.8013803281624 -122.17299914576,41.6933068449541 -122.160983232612,41.6932197458044 -122.161567787226,41.6481886515344 -122.137552859814,41.6480109643939 -122.137672954192,41.6390047581145 -122.113661588491,41.6388221118963 -122.113784969652,41.6298159486013 -122.101781041369,41.6297227742262 -122.101906036282,41.6207166257624 -122.089903834803,41.6206222277919 -122.090030441958,41.6116160945456 -122.054029193583,41.6113254747918 -122.054160748038,41.6023194184592 -122.042162118926,41.6022200715621 -122.042295281007,41.5932140319741 -122.030298379966,41.5931134646798 -122.030433148153,41.5841074422136 -122.018437975111,41.5840056553215 -122.018574347887,41.5749996503546 -121.994587520477,41.5747923881956 -121.994727161414,41.5657864338847 -121.982735507711,41.5656809598126 -121.98287674941,41.5566750241327 -121.970886824236,41.5565683332746 -121.971029665197,41.547562416603 -121.959041468481,41.5474545097494 -121.959185907194,41.5384486124635 -121.947199438872,41.5383394903959 -121.947345473811,41.529333612873 -121.93536073382,41.5292232763999 -121.935508363475,41.5202174190082 -121.923525351745,41.5201058689291 -121.923823729628,41.5020941805742 -121.911844105624,41.5019814531451 -121.911994851624,41.4929756225412 -121.900016954946,41.4928616834915 -121.900473753658,41.4658442115953 -121.876528112099,41.4656128107973 -121.87683891989,41.4476012354325 -121.864869515274,41.447483740204 -121.865653562922,41.4024547306274 -121.853692492633,41.4023361770578 -121.854008913151,41.3843245454135 -121.842051214643,41.3842048241598 -121.842849245826,41.3391756772127 -121.818950539876,41.3389328903673 -121.818624960369,41.3569444401661 -121.806672425718,41.3568211086821 -121.806178557685,41.3838382068342 -121.782263826014,41.3835875842002 -121.782095754944,41.3925931753222 -121.758178030024,41.3923375035724 -121.757835056985,41.4103484807132 -121.745873010245,41.4102186993883 -121.745699755311,41.4192241250137 -121.733736135836,41.4190930591788 -121.733386084531,41.4371037836864 -121.721419239485,41.4369713909141 -121.72106556178,41.4549819730746 -121.709095489077,41.4548482517658 -121.708916874498,41.4638534786121 -121.696945227893,41.4637184696851 -121.697125497556,41.4547132853112 -121.685155587951,41.4545770737288 -121.685337429971,41.4455719174273 -121.673369257277,41.4454345039888 -121.673735999693,41.4274242334448 -121.566056039844,41.4261323178874 -121.565857837671,41.4351370539391 -121.553892185632,41.4349872419081 -121.553692240332,41.4439919158952 -121.541725026149,41.4438408122935 -121.538283794535,41.596917174066 -121.550279224711,41.5970690878582 -121.541116211444,42.0022524969233 -121.806704590103,42.0053211073038 -121.807377143548,41.9693021813149 -121.795310875813,41.969176184736 -121.795650087974,41.9511667125069 -121.783587293198,41.9510395279959 -121.783758479815,41.942034809713 -121.771697459742,41.9419063984985 -121.771870264053,41.9329017057906 -121.723633762882,41.9323755603997 -121.723813267998,41.9233710181416 -121.699698895385,41.9231004336663 -121.69951600072,41.9321048909348 -121.663339985376,41.9316893913429 -121.664279021813,41.8866676087306 -121.652228985737,41.8865267981422 -121.652607381773,41.8685180695385 -121.640560812601,41.8683760841963 -121.640751570373,41.8593717421906 -121.61666207194,41.8590840724234 -121.616856119351,41.8500798058942 -121.604813190719,41.8499341227089 -121.605008837131,41.8409298870189 -121.568885651736,41.8404854034999 -121.569487228545,41.8134730256892 -121.617631424928,41.8140625907468 -121.617825030548,41.8050582497203 -121.641894292488,41.8053453777674 -121.642084442514,41.796340931647 -121.666150683636,41.7966229295503 -121.666523993293,41.7786138155334 -121.67855387651,41.778752837055 -121.679292754396,41.7427342562708 -121.691316000078,41.7428718454557 -121.691498830729,41.7338671199592 -121.715542214066,41.7341384398762 -121.715721605787,41.7251336142984 -121.727741742543,41.7252673461803 -121.727919375434,41.7162624637841 -121.751956536581,41.7165260736586 -121.752130735707,41.7075210936425 -121.788182041111,41.707906962188 -121.788351133593,41.698901846149 -121.812382371869,41.6991527313785 -121.812548037135,41.690147521762 -121.848590432976,41.6905143144028 -121.848750999467,41.6815089748 -121.884789029846,41.6818643548572 -121.88494450182,41.6728588888884 -121.896955647384,41.6729748018512 -121.897109375467,41.6639692848132 -121.90911891788,41.6640839067892 -121.909422820123,41.6460727567767 -121.95744829753,41.6465184184451 -121.957593461067,41.6375126814097 -122.005613311696,41.6379381474594 -122.005474832559,41.6469440182989 -122.017481625866,41.6470472834586 -122.017207823032,41.6650590464725 -122.029218023353,41.6651611218496 -122.028947318827,41.6831728909541 -122.064988330032,41.6834717762865 -122.064857910553,41.6924777330408 -122.088888899851,41.6926707725961 -122.088761772824,41.7016767755418 -122.112796345655,41.7018648500637 -122.112424682043,41.7288829494869 -122.064335638203,41.7285014150791 -122.064204921346,41.7375072993394 -122.052181128374,41.7374087407678 -122.051916155773,41.7554204038262 -122.027862031442,41.7552193864856 -122.027726092184,41.7642251330611 -122.015697441384,41.7641227041251 -122.015422012393,41.7821340892986 -122.003390059817,41.7820303360752 -122.002971392793,41.8090472069445 -121.99093445136,41.8089420948126 -121.990226963314,41.8539697566828 -122.002272340799,41.8540750340688 -122.001992273438,41.8720860630603 -122.014041094632,41.8721901427764 -122.013902656216,41.8811956681418 -122.025953231658,41.8812985163216 -122.025816421986,41.8903040594556 -122.049921143153,41.8905060264323 -122.049787656502,41.8995116184706 -122.098004594406,41.8999004980612 -122.097877821197,41.9089061977536 -122.146102459055,41.9092749505274 -122.146222457421,41.9002691350331 -122.194441196123,41.9006175282994 -122.194667487366,41.8826056351285 -122.206718917609,41.882689517537 -122.206941620119,41.8646775139902</coordinates></LinearRing></outerBoundaryIs></Polygon>
  </Placemark>
  <Placemark>
	<Style><LineStyle><color>ff0000ff</color></LineStyle><PolyStyle><fill>0</fill></PolyStyle></Style>
	<ExtendedData><SchemaData schemaUrl="#Fire_2020_9">
		<SimpleData name="id">+76+93</SimpleData>
		<SimpleData name="count">4</SimpleData>
		<SimpleData name="label">1</SimpleData>
	</SchemaData></ExtendedData>
      <Polygon><outerBoundaryIs><LinearRing><coordinates>-123.781233380162,41.5224905979115 -123.781125072121,41.5134840108632 -123.757159454456,41.5136442921749 -123.757054516346,41.5046376403132 -123.74507329591,41.504715883808 -123.745279898337,41.5227292224041 -123.781233380162,41.5224905979115</coordinates></LinearRing></outerBoundaryIs></Polygon>
  </Placemark>
  <Placemark>
	<Style><LineStyle><color>ff0000ff</color></LineStyle><PolyStyle><fill>0</fill></PolyStyle></Style>
	<ExtendedData><SchemaData schemaUrl="#Fire_2020_9">
		<SimpleData name="id">+78+99</SimpleData>
		<SimpleData name="count">1</SimpleData>
		<SimpleData name="label">1</SimpleData>
	</SchemaData></ExtendedData>
      <Polygon><outerBoundaryIs><LinearRing><coordinates>-123.732584634534,41.4597591604316 -123.732483294087,41.450752373589 -123.720511927236,41.4508279782198 -123.720611611774,41.4598347888587 -123.732584634534,41.4597591604316</coordinates></LinearRing></outerBoundaryIs></Polygon>
  </Placemark>
  <Placemark>
	<Style><LineStyle><color>ff0000ff</color></LineStyle><PolyStyle><fill>0</fill></PolyStyle></Style>
	<ExtendedData><SchemaData schemaUrl="#Fire_2020_9">
		<SimpleData name="id">+79+97</SimpleData>
		<SimpleData name="count">3</SimpleData>
		<SimpleData name="label">1</SimpleData>
	</SchemaData></ExtendedData>
      <Polygon><outerBoundaryIs><LinearRing><coordinates>-123.744763744404,41.4776957681879 -123.744660654371,41.4686890342561 -123.708736616878,41.4689159909447 -123.708834734664,41.4779227963105 -123.744763744404,41.4776957681879</coordinates></LinearRing></outerBoundaryIs></Polygon>
  </Placemark>
  <Placemark>
	<Style><LineStyle><color>ff0000ff</color></LineStyle><PolyStyle><fill>0</fill></PolyStyle></Style>
	<ExtendedData><SchemaData schemaUrl="#Fire_2020_9">
		<SimpleData name="id">+82+93</SimpleData>
		<SimpleData name="count">1</SimpleData>
		<SimpleData name="label">1</SimpleData>
	</SchemaData></ExtendedData>
      <Polygon><outerBoundaryIs><LinearRing><coordinates>-123.68526147987,41.5140951749866 -123.685166504426,41.5050883812809 -123.673185013553,41.50515913668 -123.673278328478,41.5141659526549 -123.68526147987,41.5140951749866</coordinates></LinearRing></outerBoundaryIs></Polygon>
  </Placemark>
  <Placemark>
	<Style><LineStyle><color>ff0000ff</color></LineStyle><PolyStyle><fill>0</fill></PolyStyle></Style>
	<ExtendedData><SchemaData schemaUrl="#Fire_2020_9">
		<SimpleData name="id">+88+181</SimpleData>
		<SimpleData name="count">1</SimpleData>
		<SimpleData name="label">1</SimpleData>
	</SchemaData></ExtendedData>
      <Polygon><outerBoundaryIs><LinearRing><coordinates>-123.606026687632,40.7218373716808 -123.605945001641,40.7128291946234 -123.594106492386,40.7128907303612 -123.594186582691,40.7218989268581 -123.606026687632,40.7218373716808</coordinates></LinearRing></outerBoundaryIs></Polygon>
  </Placemark>
  <Placemark>
	<Style><LineStyle><color>ff0000ff</color></LineStyle><PolyStyle><fill>0</fill></PolyStyle></Style>
	<ExtendedData><SchemaData schemaUrl="#Fire_2020_9">
		<SimpleData name="id">+91+134</SimpleData>
		<SimpleData name="count">1</SimpleData>
		<SimpleData name="label">1</SimpleData>
	</SchemaData></ExtendedData>
      <Polygon><outerBoundaryIs><LinearRing><coordinates>-123.574160063264,41.1453893464698 -123.574081509877,41.1363817814975 -123.562167107839,41.1364405402823 -123.562244031152,41.1454481237688 -123.574160063264,41.1453893464698</coordinates></LinearRing></outerBoundaryIs></Polygon>
  </Placemark>
</Folder>
</Document></kml>
