{
"type": "FeatureCollection",
"name": "Fire_2020_9",
"features": [
{ "type": "Feature", "id": "+138+189", "properties": { "count": 8608, "label": 1 }, "geometry": { "type": "MultiPolygon", "coordinates": [ [ [ [ -123.710114335279812, 41.595009960697617 ], [ -123.722112332930379, 41.594935226453494 ], [ -123.722011965924381, 41.585928631086816 ], [ -123.710015635546981, 41.586003341831002 ], [ -123.710114335279812, 41.595009960697617 ] ] ], [ [ [ -123.697922271955335, 41.577070144689031 ], [ -123.709916980711952, 41.576996708609315 ], [ -123.70981837075675, 41.567990061041534 ], [ -123.697825327782098, 41.568063474025564 ], [ -123.697922271955335, 41.577070144689031 ] ] ], [ [ [ -123.605455660631037, 40.658779833302013 ], [ -123.605618626818455, 40.676796344020019 ], [ -123.617450723665229, 40.67673367355728 ], [ -123.617284574064044, 40.65871720243701 ], [ -123.605455660631037, 40.658779833302013 ] ] ], [ [ [ -123.501498456761951, 40.992591192761132 ], [ -123.513387043527558, 40.992538859553733 ], [ -123.513317181197564, 40.98353096401042 ], [ -123.501430212073203, 40.983583280706796 ], [ -123.501498456761951, 40.992591192761132 ] ] ], [ [ [ -122.669172351066194, 41.011223762639233 ], [ -122.669217400454798, 41.002215684495376 ], [ -122.657326821216898, 41.002180950416268 ], [ -122.657280152516179, 41.011189017600671 ], [ -122.669172351066194, 41.011223762639233 ] ] ], [ [ [ -123.710114335279812, 41.595009960697617 ], [ -123.698116292704498, 41.59508344298667 ], [ -123.69821336932533, 41.604090070620835 ], [ -123.686213614507196, 41.604162323664241 ], [ -123.686022840826425, 41.586149008613027 ], [ -123.698019260262797, 41.586076801006406 ], [ -123.697922271955335, 41.577070144689031 ], [ -123.685927519082455, 41.577142329586245 ], [ -123.685737005670575, 41.559128928512358 ], [ -123.673745540317228, 41.559199817607734 ], [ -123.673465085692627, 41.53217954162043 ], [ -123.661478568484441, 41.53224911459408 ], [ -123.661386830695065, 41.523242305392429 ], [ -123.649401933823071, 41.523310607618264 ], [ -123.649221905277699, 41.505296903282122 ], [ -123.637240289376521, 41.505363914458215 ], [ -123.637151996329806, 41.496357019736948 ], [ -123.529330675791343, 41.496903782415849 ], [ -123.529404029423688, 41.505910849209407 ], [ -123.49345798158889, 41.506070693625453 ], [ -123.493526386186744, 41.515077796468404 ], [ -123.469558875834437, 41.515178149873904 ], [ -123.469623988367289, 41.524185270045358 ], [ -123.457638526778368, 41.524233588996168 ], [ -123.457765515223059, 41.542247817041144 ], [ -123.445776699226073, 41.542294916582854 ], [ -123.445714853704217, 41.533287794857316 ], [ -123.433727672721886, 41.533333630146032 ], [ -123.433607390110964, 41.515319315171091 ], [ -123.42162350584691, 41.515363872965636 ], [ -123.421565066467124, 41.506356680120476 ], [ -123.409582816535007, 41.506399975611373 ], [ -123.409526063903868, 41.497392754927418 ], [ -123.397545448330661, 41.497434788905181 ], [ -123.397490380930009, 41.488427540768711 ], [ -123.38551139974264, 41.488468314014867 ], [ -123.385351321495122, 41.461446445862542 ], [ -123.397325328890432, 41.461405711100213 ], [ -123.397270361553112, 41.452398406118355 ], [ -123.385298010588315, 41.452439128061727 ], [ -123.385191461457381, 41.434424449835035 ], [ -123.397160501833909, 41.434383753520599 ], [ -123.396995899410115, 41.40736166803886 ], [ -123.40895995462192, 41.407319766158359 ], [ -123.408847041250596, 41.389304997839631 ], [ -123.42080776777307, 41.38926187913718 ], [ -123.420749699172916, 41.380254487234339 ], [ -123.408790623035273, 41.380297592363242 ], [ -123.4087342304489, 41.371290172675508 ], [ -123.468521091811382, 41.371062291000705 ], [ -123.468456480556441, 41.362054928841083 ], [ -123.50432330461885, 41.361903339134017 ], [ -123.504253778564205, 41.35289601047257 ], [ -123.516207676372375, 41.352843013356271 ], [ -123.516065425200665, 41.33482834668191 ], [ -123.539966535617538, 41.334718696898996 ], [ -123.5396692636415, 41.298689330671941 ], [ -123.551613190141026, 41.298632716022027 ], [ -123.551537313751908, 41.28962535665616 ], [ -123.563479563078829, 41.289567521061031 ], [ -123.563402079163495, 41.28056016565673 ], [ -123.551461471813184, 41.280617983043015 ], [ -123.551234152492725, 41.253595776666003 ], [ -123.539298432211112, 41.253652302221006 ], [ -123.53907633705218, 41.226629914168711 ], [ -123.527145497991242, 41.226685150255008 ], [ -123.526928613204689, 41.19966258178507 ], [ -123.538854544113462, 41.199607397890887 ], [ -123.5387068498069, 41.181592315808594 ], [ -123.526784187301502, 41.181647464937974 ], [ -123.52671202347878, 41.172639885161473 ], [ -123.538633052900877, 41.172584753405509 ], [ -123.538559289466093, 41.163577176764129 ], [ -123.550478653088263, 41.163520829048601 ], [ -123.550403291523637, 41.154513255910651 ], [ -123.538485559493537, 41.154569585875464 ], [ -123.538190973812576, 41.118539079910896 ], [ -123.550102186885425, 41.118482820921969 ], [ -123.550026996036635, 41.109475176565581 ], [ -123.538117410863791, 41.109531417821763 ], [ -123.537896922063268, 41.082508346115603 ], [ -123.549801627982745, 41.082452158039686 ], [ -123.549726573390416, 41.073444456712139 ], [ -123.561629620346139, 41.073387056898731 ], [ -123.561476365575771, 41.055371647712896 ], [ -123.549576566263354, 41.055429011333182 ], [ -123.549426695069357, 41.037413509001027 ], [ -123.561323249684932, 41.037356181546919 ], [ -123.561246743774433, 41.028348427101996 ], [ -123.549351810411324, 41.028405736482 ], [ -123.549276959682672, 41.019397949715689 ], [ -123.537383612915036, 41.019454013904948 ], [ -123.537237252049721, 41.001438362308733 ], [ -123.501566732379686, 41.001599090586161 ], [ -123.501498456761951, 40.992591192761132 ], [ -123.489609839067327, 40.992642299956827 ], [ -123.489476615191677, 40.974626429414222 ], [ -123.477591201922422, 40.974676279139196 ], [ -123.477526251454648, 40.965668306825862 ], [ -123.489410048519957, 40.965618472821411 ], [ -123.489343511986704, 40.956610502017249 ], [ -123.524989872994311, 40.95645370041067 ], [ -123.524491097168038, 40.893397852957726 ], [ -123.548232602623798, 40.893287440505127 ], [ -123.548083948602098, 40.875271425791908 ], [ -123.559951432836755, 40.875214422979958 ], [ -123.55979969792601, 40.857198387335991 ], [ -123.571663932397342, 40.857140200328899 ], [ -123.571509122310829, 40.839124144490803 ], [ -123.583370109255625, 40.839064774833673 ], [ -123.583133343503178, 40.812040640537312 ], [ -123.571277169785574, 40.81209995399584 ], [ -123.571199922234953, 40.803091862035892 ], [ -123.583054492989774, 40.80303256729826 ], [ -123.58258213843061, 40.748983828967496 ], [ -123.570737170234977, 40.749043011451647 ], [ -123.570583198483249, 40.731026614110014 ], [ -123.582424971622942, 40.730967468995772 ], [ -123.582032676008851, 40.685926320071445 ], [ -123.59386643867353, 40.68586605546772 ], [ -123.593626710376085, 40.658841252492408 ], [ -123.605455660631037, 40.658779833302013 ], [ -123.605292841731398, 40.640763265648786 ], [ -123.179547543156389, 40.642210016158081 ], [ -123.179571687751192, 40.65121876440022 ], [ -123.155915266245543, 40.651253128238693 ], [ -123.155936239598759, 40.660261873228933 ], [ -123.144106423170243, 40.660277242675811 ], [ -123.144125814194993, 40.669285978413399 ], [ -123.13229439719322, 40.669300140398768 ], [ -123.132276597983164, 40.660291400178586 ], [ -123.120446764747172, 40.660304345746248 ], [ -123.120414371929215, 40.64228681481157 ], [ -123.002147570453729, 40.642349573569717 ], [ -123.002151044634189, 40.750454151090182 ], [ -122.860001341754341, 40.750369263592653 ], [ -122.859982443554358, 40.759377859884765 ], [ -122.848135074269763, 40.759362878608904 ], [ -122.848094051983665, 40.777380019387287 ], [ -122.83624349176641, 40.777363811722417 ], [ -122.836221365506375, 40.786372355813427 ], [ -122.824369214103257, 40.78635492572112 ], [ -122.824274196852244, 40.822388938870255 ], [ -122.81241564419814, 40.822370267899117 ], [ -122.812390258185502, 40.831378729982923 ], [ -122.800530112216521, 40.831358833898385 ], [ -122.800476093913375, 40.849375703116053 ], [ -122.788612748387905, 40.849354574471072 ], [ -122.788584113914496, 40.858362981218662 ], [ -122.776719174373468, 40.858340625537885 ], [ -122.776628367831606, 40.885365739806396 ], [ -122.764758616725274, 40.88534214141422 ], [ -122.764726710578614, 40.894350477123034 ], [ -122.740984032677673, 40.894299599725379 ], [ -122.740948890889186, 40.903307905232836 ], [ -122.729075964858168, 40.903280625086488 ], [ -122.728965607813663, 40.930305430909456 ], [ -122.705210134228977, 40.930247148627046 ], [ -122.705170088231924, 40.939255370555244 ], [ -122.693290764803692, 40.939224384490046 ], [ -122.69324908645099, 40.948232582487122 ], [ -122.705130024088902, 40.948263578325999 ], [ -122.70504984133801, 40.96627995140414 ], [ -122.693165673079847, 40.966248935999957 ], [ -122.69308218409752, 40.984265232891978 ], [ -122.681194801227093, 40.984232972180266 ], [ -122.681064570025924, 41.011257280785728 ], [ -122.669172351066194, 41.011223762639233 ], [ -122.669127281249899, 41.020231826607677 ], [ -122.657233462669112, 41.020197070609669 ], [ -122.656952878705084, 41.074245091105674 ], [ -122.668856432966408, 41.074279912932226 ], [ -122.668811219913735, 41.083287877726661 ], [ -122.68071641986171, 41.083321480548349 ], [ -122.680585537660434, 41.11034532171545 ], [ -122.692495637433183, 41.110377725178445 ], [ -122.69245359860453, 41.119385654112129 ], [ -122.704365345609034, 41.119416836243623 ], [ -122.704324916615263, 41.12842476084743 ], [ -122.716238310869485, 41.128454720865896 ], [ -122.716199493201813, 41.137462640744566 ], [ -122.728114534714734, 41.13749137787746 ], [ -122.72804010808072, 41.155507193272484 ], [ -122.739958428040197, 41.155534715398019 ], [ -122.739887198366546, 41.173550491500734 ], [ -122.751808799018349, 41.173576797091776 ], [ -122.751774793320223, 41.182584672189428 ], [ -122.763698042793806, 41.182609751768759 ], [ -122.763633254103624, 41.200625475311043 ], [ -122.775559787287875, 41.200649335625002 ], [ -122.775405743581089, 41.245688434324357 ], [ -122.787340476326733, 41.245711095225715 ], [ -122.78731126495525, 41.254718879638439 ], [ -122.799247650304579, 41.254740310261084 ], [ -122.799164859115592, 41.281763598793603 ], [ -122.811106179539593, 41.281783811085127 ], [ -122.810976162505767, 41.326822374011279 ], [ -122.82292571392324, 41.326841377610599 ], [ -122.82285250234149, 41.353864363428841 ], [ -122.834807005344672, 41.353882143262233 ], [ -122.834738641153038, 41.380905018461924 ], [ -122.846698101760637, 41.380921572184789 ], [ -122.846676943561093, 41.389929174149678 ], [ -122.858638064372116, 41.389944489787467 ], [ -122.85861854790663, 41.398952082418866 ], [ -122.882544118065283, 41.398978992261682 ], [ -122.882527896916699, 41.407986579206742 ], [ -122.89449234553669, 41.407998172225994 ], [ -122.894477769868146, 41.417005748669744 ], [ -122.91840999194369, 41.417025208550356 ], [ -122.918387436675218, 41.435040331227512 ], [ -122.942326295216617, 41.435054822283739 ], [ -122.942318320135215, 41.444062366954078 ], [ -122.954289410341474, 41.444067746263634 ], [ -122.954283087513417, 41.453075278474337 ], [ -122.966255836476805, 41.453079413419594 ], [ -122.966246496198721, 41.471094437982757 ], [ -122.990198627770638, 41.471098972543565 ], [ -122.990195913061854, 41.489113943342559 ], [ -123.002175297188543, 41.48911434060453 ], [ -123.002175900065893, 41.507129255043225 ], [ -123.014158604105361, 41.507128404141021 ], [ -123.014162530605532, 41.525143261419913 ], [ -123.02614855683052, 41.525141160772506 ], [ -123.02615581300816, 41.543155960101082 ], [ -123.038145163673434, 41.543152608154379 ], [ -123.038150458424568, 41.552159985522479 ], [ -123.050141470874294, 41.552155382141741 ], [ -123.050155398237678, 41.570170091513027 ], [ -123.062149738146033, 41.570164234057195 ], [ -123.062184301311689, 41.606193475508256 ], [ -123.074185307653693, 41.606186357940665 ], [ -123.074205952591825, 41.624200889211963 ], [ -123.086210293974247, 41.624192513643642 ], [ -123.08624631194354, 41.651214196410649 ], [ -123.098255663158426, 41.651204558224265 ], [ -123.098296752521733, 41.678226104393445 ], [ -123.110311119650703, 41.678215201217448 ], [ -123.110542624832917, 41.813320967528668 ], [ -123.098503043781577, 41.813331922241012 ], [ -123.098544471549232, 41.840352703108451 ], [ -123.086499820684892, 41.840362405138102 ], [ -123.086536234721393, 41.86738306756267 ], [ -123.074486507872649, 41.867391514520101 ], [ -123.074496965268665, 41.876398376300145 ], [ -123.062445541951504, 41.876405561304267 ], [ -123.062471863047477, 41.903426068338256 ], [ -123.050415356002432, 41.903431994317572 ], [ -123.050429533079495, 41.921445598500547 ], [ -123.038369632441857, 41.921450261610268 ], [ -123.038375029493125, 41.930457043898393 ], [ -123.026313430060441, 41.93046044147053 ], [ -123.026317132466886, 41.939467210643251 ], [ -123.014253834221165, 41.939469341887282 ], [ -123.014257847543519, 41.957482839044971 ], [ -123.002191151833472, 41.957483703430889 ], [ -123.002191460431717, 41.966490431011614 ], [ -122.990123065145085, 41.96649002707516 ], [ -122.990121673663694, 41.975496740354707 ], [ -122.978051578791494, 41.975495067296386 ], [ -122.978048485685349, 41.984501765870512 ], [ -122.965976691236563, 41.984498822899809 ], [ -122.965971894942612, 41.993505506364272 ], [ -122.95389840091724, 41.993501292681685 ], [ -122.95389189989038, 42.002507960641225 ], [ -123.110869403905838, 42.002463681180679 ], [ -123.110885043071889, 42.011470321049906 ], [ -123.171269294662494, 42.011396109059341 ], [ -123.171245139009429, 42.002389492483438 ], [ -123.448968467500137, 42.001639240695496 ], [ -123.448841896673244, 41.983626436031095 ], [ -123.460913141766298, 41.983578605458369 ], [ -123.460978114206867, 41.992584999898874 ], [ -123.473051031109591, 41.992535884690376 ], [ -123.473117735457109, 42.001542249450544 ], [ -123.642158850924886, 42.000721074000055 ], [ -123.642068317120533, 41.991714967065363 ], [ -123.738646123615936, 41.991134156692091 ], [ -123.738230003602553, 41.955110314690806 ], [ -123.726164735414301, 41.955187262168188 ], [ -123.725960355176497, 41.937175206528053 ], [ -123.713898435413554, 41.937250838701182 ], [ -123.713497014991304, 41.901226459911605 ], [ -123.701441830383132, 41.901300731711991 ], [ -123.700752941784614, 41.838257352444003 ], [ -123.688709549397117, 41.838330198447359 ], [ -123.688034655616477, 41.775285955476171 ], [ -123.700066248542896, 41.775213269534632 ], [ -123.699479395526097, 41.721174924298474 ], [ -123.711500860028536, 41.721101117807436 ], [ -123.711103807718231, 41.685075360023049 ], [ -123.723118519845187, 41.685000390393377 ], [ -123.722715495274372, 41.648974497134056 ], [ -123.734723466641071, 41.648898367429013 ], [ -123.734416666414475, 41.621878868493418 ], [ -123.722413708177072, 41.621954926405103 ], [ -123.722212745624688, 41.603941807465098 ], [ -123.710213079955352, 41.604016565218124 ], [ -123.710114335279812, 41.595009960697617 ] ], [ [ -123.661478568484441, 41.53224911459408 ], [ -123.649492009531556, 41.532317438316603 ], [ -123.649582126230143, 41.541324254695795 ], [ -123.661570348018529, 41.54125590947659 ], [ -123.661478568484441, 41.53224911459408 ] ], [ [ -123.55896760668719, 40.758109174041934 ], [ -123.558892167193704, 40.749100978398445 ], [ -123.547047130034414, 40.749157729789907 ], [ -123.547120970877032, 40.758165943363778 ], [ -123.55896760668719, 40.758109174041934 ] ], [ [ -123.50798258704188, 41.830264790497665 ], [ -123.507911395914945, 41.821258203179887 ], [ -123.495870767140516, 41.821310812259917 ], [ -123.495801295191399, 41.81230419413891 ], [ -123.483762321473051, 41.812355525051039 ], [ -123.483830106673523, 41.821362159305792 ], [ -123.471789415295504, 41.82141224429953 ], [ -123.471855543876828, 41.830418880027523 ], [ -123.4477706963457, 41.830515294131857 ], [ -123.447833478442078, 41.839521945912736 ], [ -123.471921702614608, 41.839425501508224 ], [ -123.47198789152678, 41.848432108723685 ], [ -123.484033647803997, 41.848381976496526 ], [ -123.483897922785033, 41.830368779295291 ], [ -123.50798258704188, 41.830264790497665 ] ], [ [ -123.506635488398771, 41.659137191662559 ], [ -123.506494365609868, 41.641123460664417 ], [ -123.494487325787148, 41.641175740017822 ], [ -123.494418484006204, 41.632168836690695 ], [ -123.482413084282612, 41.632219845880186 ], [ -123.482480254622203, 41.641226765251226 ], [ -123.470473152869616, 41.641276536346659 ], [ -123.470342184924149, 41.623262652051011 ], [ -123.446334577110321, 41.623358371560009 ], [ -123.44645886062888, 41.641372316078709 ], [ -123.458466021283996, 41.64132505328616 ], [ -123.45852987774748, 41.650331989320946 ], [ -123.47053868157397, 41.650283457119066 ], [ -123.470604240129333, 41.659290363644196 ], [ -123.506635488398771, 41.659137191662559 ] ], [ [ -123.447959128540731, 41.857535206714694 ], [ -123.447896289167758, 41.848528583437357 ], [ -123.435850444622076, 41.848574925896912 ], [ -123.43591159412027, 41.857581563735941 ], [ -123.447959128540731, 41.857535206714694 ] ], [ [ -123.424102141538043, 41.893653122682046 ], [ -123.423983032360439, 41.875639918375136 ], [ -123.411932060761117, 41.875683775609531 ], [ -123.411816442346876, 41.857670486771156 ], [ -123.399768826539059, 41.85771305276716 ], [ -123.399824931871152, 41.866719717681406 ], [ -123.3877755997691, 41.866761032962025 ], [ -123.387830039202456, 41.875767696618631 ], [ -123.37577899077921, 41.875807760384355 ], [ -123.375831762786689, 41.884814422397049 ], [ -123.387884503483207, 41.884774346036941 ], [ -123.387938992602372, 41.893780981234926 ], [ -123.424102141538043, 41.893653122682046 ] ], [ [ -123.546899548520315, 40.731141259999148 ], [ -123.535057673134375, 40.731196760756077 ], [ -123.535129849982681, 40.740205020296742 ], [ -123.546973322591157, 40.740149502004698 ], [ -123.546899548520315, 40.731141259999148 ] ], [ [ -123.546899548520315, 40.731141259999148 ], [ -123.558741390542821, 40.731084544450461 ], [ -123.558666053349484, 40.722076306136991 ], [ -123.546825807812894, 40.722133003782254 ], [ -123.546899548520315, 40.731141259999148 ] ] ] ], "geodesic": false } },
{ "type": "Feature", "id": "+228+168", "properties": { "count": 1060, "label": 1 }, "geometry": { "type": "Polygon", "coordinates": [ [ [ -122.1107580134329, 40.97223596482349 ], [ -122.098874071541218, 40.972143683364713 ], [ -122.098996606480085, 40.963136509896216 ], [ -122.063349963060119, 40.962852406449692 ], [ -122.063604552286122, 40.94483819543678 ], [ -122.051725680692513, 40.944741106823429 ], [ -122.051854501987847, 40.935734010277663 ], [ -122.039977301871517, 40.935635729105861 ], [ -122.040107677225336, 40.926628649116047 ], [ -122.016356679577413, 40.9264284804498 ], [ -122.016623698199112, 40.908414403375694 ], [ -122.004751512137332, 40.908312549208745 ], [ -122.004886540899079, 40.899305521096643 ], [ -121.99301602606306, 40.899202477497376 ], [ -121.993152603044237, 40.890195467414458 ], [ -121.981283759371095, 40.890091235155424 ], [ -121.981421883116454, 40.881084243470006 ], [ -121.969554710543292, 40.88097882333274 ], [ -121.9699735280807, 40.853957861086457 ], [ -121.958111239944188, 40.853851321127323 ], [ -121.958252325066738, 40.844844338326247 ], [ -121.946391706386294, 40.844736612806528 ], [ -121.946676894099369, 40.826722671656512 ], [ -121.934819548897792, 40.826613795727297 ], [ -121.93409806755227, 40.871648367717121 ], [ -121.945963440476518, 40.871757415619811 ], [ -121.945677606587296, 40.889771211539198 ], [ -121.933809017487718, 40.889662094789621 ], [ -121.933519705573232, 40.907675763732144 ], [ -121.921647962910896, 40.907565356247233 ], [ -121.920034298001724, 41.006639112149344 ], [ -121.884366202318702, 41.006299381984114 ], [ -121.884214250662438, 41.015305892594746 ], [ -121.860432626176603, 41.015073202363993 ], [ -121.860587814813186, 41.006066765118774 ], [ -121.848698726140853, 41.005948617722424 ], [ -121.849481696745357, 40.960916398662874 ], [ -121.837600760104564, 40.960797213424911 ], [ -121.837442693095142, 40.969803648864527 ], [ -121.82556021333734, 40.969683201637316 ], [ -121.825719895050526, 40.960676804196446 ], [ -121.754436248795471, 40.95992864608499 ], [ -121.754605541215568, 40.950922469980021 ], [ -121.73084815891751, 40.950663374705734 ], [ -121.731020600588451, 40.941657265633054 ], [ -121.683513230555462, 40.941124562414799 ], [ -121.683692042539406, 40.932118606657582 ], [ -121.671817012689914, 40.931982416437059 ], [ -121.67199735498987, 40.922976488877957 ], [ -121.648250763470614, 40.922700527976758 ], [ -121.648434245077055, 40.91369467269611 ], [ -121.636562684018145, 40.913554903210198 ], [ -121.636932616746961, 40.895543236450749 ], [ -121.625064358011812, 40.895402334234184 ], [ -121.625250806987211, 40.886396523105724 ], [ -121.613384240821787, 40.88625444484174 ], [ -121.613572212827862, 40.877248663734981 ], [ -121.601707339142322, 40.877105410205104 ], [ -121.60189683272381, 40.86809965947937 ], [ -121.590033651419361, 40.867955231474127 ], [ -121.590224665129981, 40.858949511479757 ], [ -121.554640460317572, 40.858509048685228 ], [ -121.554836202759844, 40.849503452838036 ], [ -121.542976582377179, 40.849354240594231 ], [ -121.538414908708162, 41.056478092093144 ], [ -121.550311627616622, 41.05662839075945 ], [ -121.549717982500837, 41.083644106044964 ], [ -121.561619658645412, 41.083793318082151 ], [ -121.561816006776766, 41.074788047532884 ], [ -121.585616378707314, 41.07508269212537 ], [ -121.585423277267068, 41.084088055560436 ], [ -121.59732521827091, 41.084233580947632 ], [ -121.597133653416932, 41.093238975401526 ], [ -121.609037305432906, 41.093383317339182 ], [ -121.608847278638422, 41.102388742434606 ], [ -121.680280724060552, 41.103229241679919 ], [ -121.67865455338989, 41.184279786500994 ], [ -121.690575078318133, 41.184415950894959 ], [ -121.690216070648262, 41.202427106306395 ], [ -121.702139943022644, 41.202562122339017 ], [ -121.701961951128695, 41.211567720432001 ], [ -121.713887538404919, 41.211701544409223 ], [ -121.713711100659296, 41.22070716990082 ], [ -121.72563840293617, 41.220839801032128 ], [ -121.725463520803132, 41.229845453563016 ], [ -121.737392538170496, 41.229976891066869 ], [ -121.737219213150212, 41.238982570259758 ], [ -121.773011643789332, 41.23936959191871 ], [ -121.772843152019675, 41.248375378307557 ], [ -121.784775753512321, 41.248501953617051 ], [ -121.784274735715684, 41.275519344233629 ], [ -121.796212329703323, 41.275644801715515 ], [ -121.796046812498119, 41.284650608720703 ], [ -121.807986122052355, 41.284774867841023 ], [ -121.807658145237696, 41.302786516095175 ], [ -121.819600812398008, 41.302909614798757 ], [ -121.819275823784224, 41.320921281908547 ], [ -121.831221850949134, 41.321043218668258 ], [ -121.831864963646552, 41.285019672293551 ], [ -121.843804494204306, 41.285140217598823 ], [ -121.844598549175004, 41.240110265312133 ], [ -121.856529956384421, 41.240229384892224 ], [ -121.857000616729948, 41.213211125362228 ], [ -121.868927186682242, 41.213328897532278 ], [ -121.869547203693713, 41.17730419844839 ], [ -121.881467309593802, 41.177420588919702 ], [ -121.881620506359965, 41.168414340958492 ], [ -121.893539049973, 41.168529461777936 ], [ -121.893841973726595, 41.150516849514702 ], [ -121.905757324628297, 41.150630665567121 ], [ -121.906056715236019, 41.132617923236822 ], [ -121.917968875501487, 41.132730436103259 ], [ -121.918412570254745, 41.105711106949251 ], [ -121.930319915226889, 41.1058222831495 ], [ -121.93046605340885, 41.096815775925513 ], [ -121.942371838627182, 41.09692568711818 ], [ -121.942516285272475, 41.087919130702453 ], [ -121.954420510665145, 41.088027777651099 ], [ -121.954705959123203, 41.070014552709893 ], [ -121.966607000742783, 41.070121902338556 ], [ -121.966888944953766, 41.052108551588297 ], [ -121.978786804875355, 41.052214605469032 ], [ -121.978926059446934, 41.043207874869964 ], [ -122.002718724416269, 41.043416232587333 ], [ -122.002854673825411, 41.034409421795665 ], [ -122.014749478055691, 41.034511726773154 ], [ -122.014883745522184, 41.025504869224172 ], [ -122.026776990232207, 41.025605914943299 ], [ -122.026909577229276, 41.016599011050232 ], [ -122.038801262365155, 41.016698798283549 ], [ -122.038932170357072, 41.007691848450641 ], [ -122.062712479933907, 41.007887681191562 ], [ -122.06284009211484, 40.998880655136595 ], [ -122.098506133458599, 40.999165117271438 ], [ -122.098628835061916, 40.990157987056818 ], [ -122.110516010053189, 40.990250326744388 ], [ -122.1107580134329, 40.97223596482349 ] ] ], "geodesic": false } },
{ "type": "Feature", "id": "+237+111", "properties": { "count": 1829, "label": 1 }, "geometry": { "type": "Polygon", "coordinates": [ [ [ -122.206941620119395, 41.864677513990209 ], [ -122.194893572275816, 41.864593684267909 ], [ -122.195345123919125, 41.828569609504157 ], [ -122.183303883014702, 41.828484622949397 ], [ -122.18364706519894, 41.801466495552596 ], [ -122.171610934891021, 41.801380328162395 ], [ -122.172999145759562, 41.693306844954122 ], [ -122.160983232612026, 41.693219745804363 ], [ -122.161567787226289, 41.648188651534362 ], [ -122.137552859813752, 41.648010964393876 ], [ -122.1376729541917, 41.639004758114488 ], [ -122.113661588491482, 41.638822111896339 ], [ -122.113784969652329, 41.62981594860134 ], [ -122.101781041369179, 41.62972277422616 ], [ -122.101906036281576, 41.620716625762356 ], [ -122.089903834802939, 41.620622227791927 ], [ -122.090030441957708, 41.611616094545575 ], [ -122.054029193582949, 41.61132547479184 ], [ -122.05416074803847, 41.602319418459246 ], [ -122.042162118926157, 41.602220071562122 ], [ -122.042295281006716, 41.593214031974121 ], [ -122.030298379965544, 41.593113464679753 ], [ -122.03043314815298, 41.584107442213643 ], [ -122.018437975111098, 41.584005655321526 ], [ -122.018574347887252, 41.574999650354599 ], [ -121.994587520477495, 41.574792388195604 ], [ -121.994727161414488, 41.565786433884675 ], [ -121.982735507711368, 41.565680959812553 ], [ -121.982876749410266, 41.556675024132687 ], [ -121.970886824236445, 41.556568333274555 ], [ -121.971029665197051, 41.547562416603036 ], [ -121.959041468480649, 41.5474545097494 ], [ -121.959185907193813, 41.538448612463526 ], [ -121.947199438871948, 41.53833949039592 ], [ -121.947345473810515, 41.529333612872982 ], [ -121.935360733820303, 41.529223276399897 ], [ -121.935508363475122, 41.520217419008205 ], [ -121.923525351744701, 41.520105868929129 ], [ -121.923823729627713, 41.502094180574183 ], [ -121.911844105623885, 41.501981453145135 ], [ -121.911994851624257, 41.492975622541209 ], [ -121.900016954945983, 41.492861683491455 ], [ -121.900473753657849, 41.465844211595311 ], [ -121.876528112099436, 41.465612810797332 ], [ -121.87683891989019, 41.447601235432479 ], [ -121.864869515273753, 41.447483740204049 ], [ -121.865653562922347, 41.402454730627383 ], [ -121.853692492632575, 41.402336177057776 ], [ -121.854008913151119, 41.38432454541347 ], [ -121.842051214642851, 41.384204824159767 ], [ -121.842849245826486, 41.339175677212722 ], [ -121.818950539876241, 41.338932890367332 ], [ -121.818624960368624, 41.356944440166131 ], [ -121.806672425717977, 41.356821108682112 ], [ -121.806178557684547, 41.383838206834177 ], [ -121.782263826014201, 41.383587584200164 ], [ -121.782095754943569, 41.392593175322219 ], [ -121.758178030023828, 41.392337503572406 ], [ -121.757835056985343, 41.410348480713175 ], [ -121.745873010244821, 41.410218699388295 ], [ -121.745699755311094, 41.419224125013727 ], [ -121.733736135836111, 41.419093059178842 ], [ -121.733386084531318, 41.43710378368641 ], [ -121.721419239484632, 41.436971390914081 ], [ -121.721065561779852, 41.454981973074609 ], [ -121.709095489077356, 41.454848251765839 ], [ -121.7089168744982, 41.463853478612066 ], [ -121.696945227893437, 41.463718469685126 ], [ -121.697125497555618, 41.454713285311243 ], [ -121.685155587951257, 41.454577073728778 ], [ -121.685337429970616, 41.445571917427252 ], [ -121.673369257276804, 41.445434503988771 ], [ -121.673735999692795, 41.427424233444832 ], [ -121.566056039844071, 41.426132317887415 ], [ -121.565857837670833, 41.435137053939087 ], [ -121.553892185631739, 41.434987241908132 ], [ -121.553692240331586, 41.443991915895204 ], [ -121.54172502614918, 41.443840812293487 ], [ -121.538283794534934, 41.596917174065972 ], [ -121.550279224710579, 41.597069087858245 ], [ -121.541116211443708, 42.002252496923255 ], [ -121.806704590103337, 42.005321107303757 ], [ -121.807377143548081, 41.969302181314902 ], [ -121.795310875813399, 41.969176184736043 ], [ -121.795650087974096, 41.951166712506932 ], [ -121.783587293198167, 41.951039527995945 ], [ -121.78375847981485, 41.942034809712951 ], [ -121.771697459741617, 41.941906398498546 ], [ -121.771870264053447, 41.932901705790584 ], [ -121.723633762882486, 41.93237556039967 ], [ -121.723813267997528, 41.923371018141552 ], [ -121.699698895385225, 41.923100433666313 ], [ -121.69951600072001, 41.932104890934824 ], [ -121.663339985376226, 41.931689391342879 ], [ -121.664279021813201, 41.88666760873064 ], [ -121.652228985737395, 41.886526798142228 ], [ -121.652607381772981, 41.86851806953851 ], [ -121.640560812601279, 41.868376084196257 ], [ -121.640751570372885, 41.859371742190582 ], [ -121.616662071940127, 41.859084072423393 ], [ -121.616856119351283, 41.850079805894175 ], [ -121.604813190719042, 41.849934122708916 ], [ -121.605008837131408, 41.840929887018852 ], [ -121.568885651736437, 41.840485403499862 ], [ -121.569487228544972, 41.813473025689191 ], [ -121.617631424927907, 41.814062590746772 ], [ -121.617825030547621, 41.805058249720268 ], [ -121.641894292488232, 41.805345377767402 ], [ -121.642084442513621, 41.796340931646988 ], [ -121.666150683635536, 41.796622929550288 ], [ -121.666523993293211, 41.778613815533383 ], [ -121.678553876510037, 41.778752837055038 ], [ -121.679292754395789, 41.742734256270779 ], [ -121.691316000077762, 41.742871845455667 ], [ -121.691498830729032, 41.7338671199592 ], [ -121.71554221406582, 41.734138439876176 ], [ -121.715721605786513, 41.7251336142984 ], [ -121.727741742543031, 41.725267346180338 ], [ -121.727919375434254, 41.716262463784119 ], [ -121.751956536581261, 41.716526073658649 ], [ -121.752130735707226, 41.707521093642505 ], [ -121.788182041111185, 41.707906962188027 ], [ -121.788351133593238, 41.698901846148985 ], [ -121.812382371869091, 41.699152731378526 ], [ -121.812548037134619, 41.690147521761986 ], [ -121.848590432975712, 41.690514314402783 ], [ -121.84875099946656, 41.681508974800018 ], [ -121.884789029845706, 41.681864354857169 ], [ -121.884944501819902, 41.672858888888399 ], [ -121.896955647383649, 41.67297480185124 ], [ -121.897109375467366, 41.663969284813241 ], [ -121.909118917879695, 41.664083906789223 ], [ -121.909422820123211, 41.646072756776661 ], [ -121.957448297529751, 41.646518418445126 ], [ -121.957593461066566, 41.637512681409717 ], [ -122.005613311695669, 41.637938147459394 ], [ -122.005474832558818, 41.646944018298868 ], [ -122.017481625865855, 41.647047283458619 ], [ -122.017207823032379, 41.66505904647255 ], [ -122.029218023352854, 41.665161121849636 ], [ -122.028947318826766, 41.683172890954147 ], [ -122.064988330031625, 41.683471776286467 ], [ -122.064857910552547, 41.692477733040818 ], [ -122.088888899851341, 41.692670772596124 ], [ -122.088761772823545, 41.701676775541841 ], [ -122.112796345654715, 41.701864850063664 ], [ -122.112424682043027, 41.72888294948693 ], [ -122.064335638203062, 41.728501415079094 ], [ -122.064204921345706, 41.737507299339399 ], [ -122.052181128374116, 41.737408740767833 ], [ -122.051916155773284, 41.755420403826221 ], [ -122.027862031442325, 41.755219386485585 ], [ -122.027726092184139, 41.764225133061103 ], [ -122.01569744138402, 41.764122704125086 ], [ -122.015422012393259, 41.78213408929863 ], [ -122.003390059817349, 41.782030336075202 ], [ -122.002971392792659, 41.80904720694452 ], [ -121.990934451359934, 41.808942094812615 ], [ -121.990226963314143, 41.853969756682794 ], [ -122.002272340798754, 41.854075034068778 ], [ -122.001992273437878, 41.872086063060308 ], [ -122.014041094632105, 41.872190142776425 ], [ -122.013902656215876, 41.881195668141807 ], [ -122.02595323165815, 41.881298516321564 ], [ -122.025816421986363, 41.890304059455623 ], [ -122.049921143153142, 41.890506026432291 ], [ -122.049787656502289, 41.899511618470633 ], [ -122.098004594405538, 41.899900498061179 ], [ -122.097877821197187, 41.908906197753623 ], [ -122.146102459054802, 41.909274950527355 ], [ -122.146222457420805, 41.900269135033085 ], [ -122.19444119612281, 41.900617528299385 ], [ -122.194667487366331, 41.882605635128549 ], [ -122.206718917609493, 41.882689517537045 ], [ -122.206941620119395, 41.864677513990209 ] ] ], "geodesic": false } },
{ "type": "Feature", "id": "+76+93", "properties": { "count": 4, "label": 1 }, "geometry": { "type": "Polygon", "coordinates": [ [ [ -123.781233380162092, 41.522490597911528 ], [ -123.781125072120844, 41.513484010863245 ], [ -123.757159454455973, 41.513644292174924 ], [ -123.757054516345704, 41.504637640313199 ], [ -123.745073295909862, 41.504715883808004 ], [ -123.745279898337131, 41.52272922240406 ], [ -123.781233380162092, 41.522490597911528 ] ] ], "geodesic": false } },
{ "type": "Feature", "id": "+78+99", "properties": { "count": 1, "label": 1 }, "geometry": { "type": "Polygon", "coordinates": [ [ [ -123.732584634534462, 41.45975916043156 ], [ -123.732483294087075, 41.450752373588976 ], [ -123.720511927235648, 41.450827978219756 ], [ -123.720611611773549, 41.459834788858707 ], [ -123.732584634534462, 41.45975916043156 ] ] ], "geodesic": false } },
{ "type": "Feature", "id": "+79+97", "properties": { "count": 3, "label": 1 }, "geometry": { "type": "Polygon", "coordinates": [ [ [ -123.744763744404068, 41.477695768187949 ], [ -123.744660654370875, 41.468689034256137 ], [ -123.708736616877516, 41.468915990944673 ], [ -123.708834734663739, 41.477922796310516 ], [ -123.744763744404068, 41.477695768187949 ] ] ], "geodesic": false } },
{ "type": "Feature", "id": "+82+93", "properties": { "count": 1, "label": 1 }, "geometry": { "type": "Polygon", "coordinates": [ [ [ -123.685261479869808, 41.514095174986572 ], [ -123.685166504426377, 41.505088381280856 ], [ -123.673185013552725, 41.505159136679971 ], [ -123.673278328478318, 41.51416595265492 ], [ -123.685261479869808, 41.514095174986572 ] ] ], "geodesic": false } },
{ "type": "Feature", "id": "+88+181", "properties": { "count": 1, "label": 1 }, "geometry": { "type": "Polygon", "coordinates": [ [ [ -123.606026687632209, 40.721837371680763 ], [ -123.605945001640521, 40.71282919462341 ], [ -123.594106492385677, 40.712890730361238 ], [ -123.594186582690952, 40.721898926858131 ], [ -123.606026687632209, 40.721837371680763 ] ] ], "geodesic": false } },
{ "type": "Feature", "id": "+91+134", "properties": { "count": 1, "label": 1 }, "geometry": { "type": "Polygon", "coordinates": [ [ [ -123.574160063263733, 41.145389346469791 ], [ -123.574081509877104, 41.136381781497526 ], [ -123.562167107838889, 41.136440540282294 ], [ -123.562244031151593, 41.145448123768837 ], [ -123.574160063263733, 41.145389346469791 ] ] ], "geodesic": false } }
]
}
